[{"OBJECT_NAME":"ONEWEB-0608","OBJECT_ID":"2022-166AG","EPOCH":"2026-03-09T23:17:38.283936","MEAN_MOTION":13.21825609,"ECCENTRICITY":0.0001131,"INCLINATION":87.9175,"RA_OF_ASC_NODE":263.7429,"ARG_OF_PERICENTER":80.7903,"MEAN_ANOMALY":279.3358,"EPHEMERIS_TYPE":0,"CLASSIFICATION_TYPE":"U","NORAD_CAT_ID":54672,"ELEMENT_SET_NO":999,"REV_AT_EPOCH":15844,"BSTAR":-0.00047813196,"MEAN_MOTION_DOT":-1.84e-6,"MEAN_MOTION_DDOT":0},{"OBJECT_NAME":"ANNA 1B","OBJECT_ID":"1962-060A","EPOCH":"2026-03-09T04:30:38.401344","MEAN_MOTION":13.35359941,"ECCENTRICITY":0.00702481,"INCLINATION":50.1442,"RA_OF_ASC_NODE":356.631,"ARG_OF_PERICENTER":78.5834,"MEAN_ANOMALY":62.5485,"EPHEMERIS_TYPE":0,"CLASSIFICATION_TYPE":"U","NORAD_CAT_ID":446,"ELEMENT_SET_NO":999,"REV_AT_EPOCH":9034,"BSTAR":8.6250637e-5,"MEAN_MOTION_DOT":-8.3e-7,"MEAN_MOTION_DDOT":0}]
